NORAD_CAT_ID,OBJECT_NAME,OBJECT_TYPE,EPOCH,MEAN_MOTION,ECCENTRICITY,INCLINATION,RA_OF_ASC_NODE,ARG_OF_PERICENTER,MEAN_ANOMALY,BSTAR,MEAN_MOTION_DOT,MEAN_MOTION_DDOT,TLE_LINE0,TLE_LINE1,TLE_LINE2,SEMIMAJOR_AXIS,PERIOD,APOGEE,PERIGEE,DECAYED
52690.0,STARLINK-4035,PAYLOAD,2023-05-25 16:41:19,15.08845444,0.0001063,53.2169,38.562,101.9701,258.141,0.00034341,5.183e-05,0.0,0 STARLINK-4035,1 52690U 22053AL  23145.69536536  .00005183  00000-0  34341-3 0  9997,2 52690  53.2169  38.5620 0001063 101.9701 258.1410 15.08845444 56918,6917.864,95.437,540.464,538.993,0.0
52690.0,STARLINK-4035,PAYLOAD,2023-05-25 21:27:28,15.08845807,0.00011,53.2171,37.6698,96.2558,263.856,0.00029444,4.402e-05,0.0,0 STARLINK-4035,1 52690U 22053AL  23145.89408483  .00004402  00000-0  29444-3 0  9999,2 52690  53.2171  37.6698 0001100  96.2558 263.8560 15.08845807 57311,6917.863,95.437,540.489,538.967,0.0
52690.0,STARLINK-4035,PAYLOAD,2023-05-25 23:02:52,15.08847646,0.0001058,53.217,37.3724,97.4262,262.685,0.00029774,4.455e-05,0.0,0 STARLINK-4035,1 52690U 22053AL  23145.96032412  .00004455  00000-0  29774-3 0  9996,2 52690  53.2170  37.3724 0001058  97.4262 262.6850 15.08847646 57327,6917.857,95.437,540.454,538.99,0.0
52690.0,STARLINK-4035,PAYLOAD,2023-05-26 21:18:16,15.08834246,0.0001176,53.217,33.211,85.2059,274.9068,0.00015411,2.165e-05,0.0,0 STARLINK-4035,1 52690U 22053AL  23146.88769074  .00002165  00000-0  15411-3 0  9998,2 52690  53.2170  33.2110 0001176  85.2059 274.9068 15.08834246 57465,6917.898,95.438,540.577,538.949,0.0
52690.0,STARLINK-4035,PAYLOAD,2023-05-27 02:04:25,15.08838887,0.0001081,53.2169,32.318,78.5468,281.5646,7.783e-05,9.51e-06,0.0,0 STARLINK-4035,1 52690U 22053AL  23147.08640947  .00000951  00000-0  77830-4 0  9993,2 52690  53.2169  32.3180 0001081  78.5468 281.5646 15.08838887 57128,6917.884,95.438,540.497,539.001,0.0
52690.0,STARLINK-4035,PAYLOAD,2023-05-27 21:09:04,15.08826074,0.0001383,53.2175,28.7478,94.7943,265.3207,0.00053027,8.158e-05,0.0,0 STARLINK-4035,1 52690U 22053AL  23147.88129740  .00008158  00000-0  53027-3 0  9992,2 52690  53.2175  28.7478 0001383  94.7943 265.3207 15.08826074 57248,6917.923,95.438,540.745,538.831,0.0
52690.0,STARLINK-4035,PAYLOAD,2023-05-27 22:44:26,15.08842302,0.000121,53.2183,28.452,101.1047,259.0082,8.3995e-05,1.049e-05,0.0,0 STARLINK-4035,1 52690U 22053AL  23147.94752719  .00001049  00000-0  83995-4 0  9997,2 52690  53.2183  28.4520 0001210 101.1047 259.0082 15.08842302 57253,6917.873,95.437,540.575,538.901,0.0
52690.0,STARLINK-4035,PAYLOAD,2023-05-28 20:59:49,15.08848811,0.0001158,53.2184,24.2866,79.174,280.9383,0.00019912,2.883e-05,0.0,0 STARLINK-4035,1 52690U 22053AL  23148.87488100  .00002883  00000-0  19912-3 0  9994,2 52690  53.2184  24.2866 0001158  79.1740 280.9383 15.08848811 57760,6917.853,95.437,540.52,538.917,0.0
52690.0,STARLINK-4035,PAYLOAD,2023-05-29 01:45:58,15.08856112,0.0001199,53.2179,23.3947,81.57,278.5428,0.00030613,4.59e-05,0.0,0 STARLINK-4035,1 52690U 22053AL  23149.07359900  .00004590  00000-0  30613-3 0  9990,2 52690  53.2179  23.3947 0001199  81.5700 278.5428 15.08856112 57421,6917.831,95.437,540.526,538.867,0.0
52690.0,STARLINK-4035,PAYLOAD,2023-05-29 16:04:28,15.08830428,9.98e-05,53.218,20.7207,83.7563,276.3542,-0.00012625,-2.296e-05,0.0,0 STARLINK-4035,1 52690U 22053AL  23149.66977230 -.00002296  00000-0 -12625-3 0  9993,2 52690  53.2180  20.7207 0000998  83.7563 276.3542 15.08830428 57515,6917.91,95.438,540.465,539.084,0.0
52690.0,STARLINK-4035,PAYLOAD,2023-05-29 22:26:00,15.08835115,0.0001142,53.2175,19.5312,98.699,261.4131,-4.6709e-05,-1.031e-05,0.0,0 STARLINK-4035,1 52690U 22053AL  23149.93473092 -.00001031  00000-0 -46709-4 0  9997,2 52690  53.2175  19.5312 0001142  98.6990 261.4131 15.08835115 57925,6917.895,95.438,540.55,538.97,0.0
52690.0,STARLINK-4035,PAYLOAD,2023-05-30 01:36:46,15.08836515,0.000115,53.2177,18.9354,95.2186,264.8937,-4.5672e-05,-1.015e-05,0.0,0 STARLINK-4035,1 52690U 22053AL  23150.06720920 -.00001015  00000-0 -45672-4 0  9998,2 52690  53.2177  18.9354 0001150  95.2186 264.8937 15.08836515 57572,6917.891,95.438,540.552,538.96,0.0
52690.0,STARLINK-4035,PAYLOAD,2023-05-30 22:16:47,15.08844017,0.0001108,53.2174,15.0701,104.563,255.5485,0.00030598,4.586e-05,0.0,0 STARLINK-4035,1 52690U 22053AL  23150.92832981  .00004586  00000-0  30598-3 0  9998,2 52690  53.2174  15.0701 0001108 104.5630 255.5485 15.08844017 58071,6917.868,95.437,540.5,538.967,0.0
52690.0,STARLINK-4035,PAYLOAD,2023-05-31 01:27:33,15.08848224,0.0001091,53.2177,14.4749,97.1419,262.9697,0.00043529,6.648e-05,0.0,0 STARLINK-4035,1 52690U 22053AL  23151.06080932  .00006648  00000-0  43529-3 0  9994,2 52690  53.2177  14.4749 0001091  97.1419 262.9697 15.08848224 57724,6917.855,95.437,540.475,538.966,0.0
52690.0,STARLINK-4035,PAYLOAD,2023-05-31 18:56:48,15.08844636,0.0001144,53.2167,11.2049,114.1458,245.9654,0.00025984,3.85e-05,0.0,0 STARLINK-4035,1 52690U 22053AL  23151.78945050  .00003850  00000-0  25984-3 0  9991,2 52690  53.2167  11.2049 0001144 114.1458 245.9654 15.08844636 57832,6917.866,95.437,540.523,538.94,0.0
52690.0,STARLINK-4035,PAYLOAD,2023-05-31 22:07:34,15.08847538,0.0001157,53.2166,10.6103,114.632,245.4793,0.00031541,4.736e-05,0.0,0 STARLINK-4035,1 52690U 22053AL  23151.92192951  .00004736  00000-0  31541-3 0  9991,2 52690  53.2166  10.6103 0001157 114.6320 245.4793 15.08847538 58229,6917.857,95.437,540.523,538.922,0.0
52690.0,STARLINK-4035,PAYLOAD,2023-05-31 23:42:57,15.08849877,0.0001168,53.2165,10.313,116.0362,244.0751,0.00035434,5.357e-05,0.0,0 STARLINK-4035,1 52690U 22053AL  23151.98816851  .00005357  00000-0  35434-3 0  9994,2 52690  53.2165  10.3130 0001168 116.0362 244.0751 15.08849877 58237,6917.85,95.437,540.523,538.907,0.0
52690.0,STARLINK-4035,PAYLOAD,2023-06-01 20:22:58,15.08840941,0.0001374,53.217,6.4458,104.1345,255.98,0.00014191,1.971e-05,0.0,0 STARLINK-4035,1 52690U 22053AL  23152.84929315  .00001971  00000-0  14191-3 0  9995,2 52690  53.2170   6.4458 0001374 104.1345 255.9800 15.08840941 57991,6917.878,95.437,540.693,538.792,0.0
52690.0,STARLINK-4035,PAYLOAD,2023-06-02 20:13:46,15.08843528,0.0001119,53.2169,1.9857,93.8657,266.2463,0.00027714,4.126e-05,0.0,0 STARLINK-4035,1 52690U 22053AL  23153.84289602  .00004126  00000-0  27714-3 0  9994,2 52690  53.2169   1.9857 0001119  93.8657 266.2463 15.08843528 58512,6917.87,95.437,540.509,538.96,0.0
52690.0,STARLINK-4035,PAYLOAD,2023-06-03 18:29:10,15.08844833,0.0001129,53.2169,357.8234,88.6092,271.503,0.00024977,3.69e-05,0.0,0 STARLINK-4035,1 52690U 22053AL  23154.77025684  .00003690  00000-0  24977-3 0  9998,2 52690  53.2169 357.8234 0001129  88.6092 271.5030 15.08844833 58283,6917.866,95.437,540.512,538.95,0.0
52690.0,STARLINK-4035,PAYLOAD,2023-06-03 20:04:33,15.08846476,0.0001129,53.2171,357.525,93.3277,266.7844,0.0002518,3.723e-05,0.0,0 STARLINK-4035,1 52690U 22053AL  23154.83649571  .00003723  00000-0  25180-3 0  9996,2 52690  53.2171 357.5250 0001129  93.3277 266.7844 15.08846476 58665,6917.861,95.437,540.507,538.945,0.0
52690.0,STARLINK-4035,PAYLOAD,2023-06-04 08:47:38,15.08841685,0.0001262,53.2168,355.1453,110.2996,249.8132,0.00013559,1.871e-05,0.0,0 STARLINK-4035,1 52690U 22053AL  23155.36641644  .00001871  00000-0  13559-3 0  9997,2 52690  53.2168 355.1453 0001262 110.2996 249.8132 15.08841685 58743,6917.875,95.437,540.613,538.867,0.0
52690.0,STARLINK-4035,PAYLOAD,2023-06-04 19:55:20,15.0884382,0.0001112,53.2172,353.0644,97.1756,262.9363,0.00014662,2.047e-05,0.0,0 STARLINK-4035,1 52690U 22053AL  23155.83009579  .00002047  00000-0  14662-3 0  9996,2 52690  53.2172 353.0644 0001112  97.1756 262.9363 15.08843820 58440,6917.869,95.437,540.503,538.964,0.0
52690.0,STARLINK-4035,PAYLOAD,2023-06-05 13:24:34,15.08839263,0.0001102,53.2172,349.7941,94.7935,265.3183,-3.6793e-05,-8.73e-06,0.0,0 STARLINK-4035,1 52690U 22053AL  23156.55873815 -.00000873  00000-0 -36793-4 0  9995,2 52690  53.2172 349.7941 0001102  94.7935 265.3183 15.08839263 58929,6917.883,95.438,540.51,538.985,0.0
52690.0,STARLINK-4035,PAYLOAD,2023-06-05 18:10:44,15.08840146,0.0001132,53.2171,348.9024,89.631,270.4812,5.921e-06,-1.94e-06,0.0,0 STARLINK-4035,1 52690U 22053AL  23156.75745767 -.00000194  00000-0  59210-5 0  9996,2 52690  53.2171 348.9024 0001132  89.6310 270.4812 15.08840146 58955,6917.88,95.438,540.528,538.962,0.0
52690.0,STARLINK-4035,PAYLOAD,2023-06-06 11:39:59,15.08837646,0.0001004,53.217,345.6307,85.9801,274.1306,6.7072e-05,7.8e-06,0.0,0 STARLINK-4035,1 52690U 22053AL  23157.48609956  .00000780  00000-0  67072-4 0  9990,2 52690  53.2170 345.6307 0001004  85.9801 274.1306 15.08837646 59067,6917.888,95.438,540.447,539.058,0.0
52690.0,STARLINK-4035,PAYLOAD,2023-06-06 14:50:45,15.08838077,0.000107,53.2175,345.0377,89.359,270.7525,6.7857e-05,7.92e-06,0.0,0 STARLINK-4035,1 52690U 22053AL  23157.61857954  .00000792  00000-0  67857-4 0  9992,2 52690  53.2175 345.0377 0001070  89.3590 270.7525 15.08838077 59085,6917.886,95.438,540.491,539.011,0.0
52690.0,STARLINK-4035,PAYLOAD,2023-06-06 19:36:54,15.08842621,0.0001057,53.2174,344.1459,89.5538,270.5575,0.00012786,1.748e-05,0.0,0 STARLINK-4035,1 52690U 22053AL  23157.81729751  .00001748  00000-0  12786-3 0  9999,2 52690  53.2174 344.1459 0001057  89.5538 270.5575 15.08842621 58749,6917.872,95.437,540.469,539.006,0.0
52690.0,STARLINK-4035,PAYLOAD,2023-06-07 11:30:46,15.08835088,0.000112,53.2173,341.1723,92.6246,267.4874,3.8246e-05,3.21e-06,0.0,0 STARLINK-4035,1 52690U 22053AL  23158.47970165  .00000321  00000-0  38246-4 0  9995,2 52690  53.2173 341.1723 0001120  92.6246 267.4874 15.08835088 58848,6917.895,95.438,540.535,538.986,0.0
52690.0,STARLINK-4035,PAYLOAD,2023-06-07 19:27:41,15.08837292,0.0001202,53.2171,339.6855,98.5189,261.5939,0.00016925,2.407e-05,0.0,0 STARLINK-4035,1 52690U 22053AL  23158.81090170  .00002407  00000-0  16925-3 0  9998,2 52690  53.2171 339.6855 0001202  98.5189 261.5939 15.08837292 59269,6917.889,95.438,540.585,538.922,0.0
